COSMOS 2425 (716)       
1 29670U 06062A   21273.58539997  .00000059  00000-0  00000-0 0  9992
2 29670  64.8200 251.8962 0024251 340.8415 188.9949  2.13115253114915
COSMOS 2433 (720)       
1 32275U 07052A   21274.58021550 -.00000069  00000-0  00000-0 0  9991
2 32275  66.0746  13.2634 0003525 209.3292 172.4142  2.13104247108454
COSMOS 2432 (719)       
1 32276U 07052B   21274.65286936 -.00000068  00000-0  00000-0 0  9990
2 32276  66.0878  13.3573 0007781 325.4374  61.0472  2.13103419108452
COSMOS 2434 (721)       
1 32393U 07065A   21275.39655853  .00000046  00000-0  00000+0 0  9998
2 32393  64.4379 250.2447 0000560 166.7775   9.9363  2.13103041107170
COSMOS 2436 (723)       
1 32395U 07065C   21275.33136943  .00000047  00000-0  00000+0 0  9999
2 32395  64.4467 250.3015 0014605 350.0547 272.6957  2.13102889107102
COSMOS 2456 (730)       
1 36111U 09070A   21275.40677450  .00000073  00000-0  00000+0 0  9997
2 36111  64.2920 129.9135 0002579 336.9029  16.7998  2.13099313 91834
COSMOS 2457 (733)       
1 36112U 09070B   21274.31160350  .00000060  00000-0  00000-0 0  9990
2 36112  64.2754 129.8332 0005798 152.9629 205.7961  2.13101485 91818
COSMOS 2459 (731)       
1 36400U 10007A   21275.53037549 -.00000066  00000-0  00000+0 0  9996
2 36400  65.9701  12.1429 0024697 349.9832 259.8913  2.13108582 90183
COSMOS 2461 (735)       
1 36401U 10007B   21274.75264821 -.00000069  00000-0  00000-0 0  9999
2 36401  65.9647  12.1321 0018001   9.7996   1.9931  2.13103586 90183
COSMOS 2460 (732)       
1 36402U 10007C   21275.12625222 -.00000067  00000-0  00000+0 0  9995
2 36402  65.9522  12.0747 0001952 160.1776  84.1233  2.13106511 90181
COSMOS 2464 (736)       
1 37139U 10041C   21274.72495652  .00000049  00000-0  00000-0 0  9998
2 37139  64.0376 249.4721 0027102   5.1680 236.4395  2.13100698 86233
COSMOS 2471 (701K)      
1 37372U 11009A   21274.66147352 -.00000069  00000-0  00000-0 0  9999
2 37372  65.9453  12.0188 0016404 225.8634 153.9867  2.13062314 82451
COSMOS 2476 (744)       
1 37867U 11064A   21274.37966292  .00000060  00000-0  00000-0 0  9999
2 37867  64.5868 131.2034 0019690 233.2736 315.7107  2.13101883 77167
COSMOS 2477 (745)       
1 37868U 11064B   21274.74484150  .00000064  00000-0  00000+0 0  9992
2 37868  64.5939 131.2535 0017112 234.4817  52.9314  2.13101718 77126
COSMOS 2475 (743)       
1 37869U 11064C   21275.12661764  .00000069  00000-0  00000+0 0  9999
2 37869  64.6009 131.2460 0020704 255.3746 282.7408  2.13102117 77140
COSMOS 2485 (747)       
1 39155U 13019A   21275.48590851  .00000073  00000-0  00000+0 0  9993
2 39155  64.7508 131.5365 0020321 228.7068 133.4236  2.13102000 65664
COSMOS 2492 (754)       
1 39620U 14012A   21275.32370881 -.00000067  00000-0  00000+0 0  9990
2 39620  65.8398  11.7847 0011021 320.6631 311.7192  2.13103199 58607
COSMOS 2500 (755)       
1 40001U 14032A   21275.12606273 -.00000068  00000-0  00000+0 0  9993
2 40001  65.7795  11.6731 0008023 192.7052 147.4110  2.13102358 56817
COSMOS 2501 (702K)      
1 40315U 14075A   21274.79662367  .00000048  00000-0  00000+0 0  9993
2 40315  63.7477 250.2370 0018723 213.6167  40.5777  2.13101331 53211
COSMOS 2514 (751)       
1 41330U 16008A   21275.02340775 -.00000068  00000-0  00000+0 0  9995
2 41330  65.5808  11.4321 0011317 205.1235 239.5801  2.13102809 43986
COSMOS 2516 (753)       
1 41554U 16032A   21275.33914000  .00000046  00000-0  00000+0 0  9997
2 41554  63.9732 250.4212 0015448 222.6810   1.8541  2.13107255 41594
COSMOS 2522 (752)       
1 42939U 17055A   21275.44932755  .00000046  00000-0  00000+0 0  9990
2 42939  64.2063 250.7361 0010031 247.6578 282.3935  2.13101956 31350
COSMOS 2527 (756)       
1 43508U 18053A   21275.44509976  .00000073  00000-0  00000+0 0  9997
2 43508  64.9157 131.4859 0006968 220.7536 338.1829  2.13102580 25642
COSMOS 2529 (757)       
1 43687U 18086A   21275.44838995  .00000047  00000-0  00000+0 0  9998
2 43687  64.4210 250.9837 0012181 266.5884 218.3081  2.13102083 22662
COSMOS 2534 (758)       
1 44299U 19030A   21275.34204399  .00000047  00000-0  00000+0 0  9992
2 44299  64.4917 250.8482 0014661 283.6277 254.4504  2.13101874 18306
COSMOS 2544 (759)       
1 44850U 19088A   21275.37202252  .00000072  00000-0  00000+0 0  9995
2 44850  64.8999 131.3459 0010322 258.0260 288.5060  2.13102272 14076
COSMOS 2545 (760)       
1 45358U 20018A   21275.18813622 -.00000068  00000-0  00000+0 0  9998
2 45358  64.9153  12.2464 0009306 235.8959  19.4397  2.13102692 12027
